{
  "type": "FeatureCollection",
  "features": [
    {
      "type": "Feature",
      "properties": {
        "norad_id": 33376,
        "name": "GALAXY 19 (G-19)",
        "group": "intelsat",
        "lat": 0.025455220835345984,
        "lon": 96.68591333446443,
        "alt_km": 35800.871340594225,
        "timestamp": "2025-12-09T07:41:32.871070+00:00",
        "meta_object_name": "GALAXY 19 (G-19)",
        "meta_object_id": "2008-045A",
        "meta_epoch": "2025-12-08T21:42:09.950112",
        "meta_mean_motion": 1.00269843,
        "meta_eccentricity": 0.00033779,
        "meta_inclination": 0.0176,
        "meta_ra_of_asc_node": 311.8736,
        "meta_arg_of_pericenter": 319.5286,
        "meta_mean_anomaly": 35.0381,
        "meta_ephemeris_type": 0,
        "meta_classification_type": "U",
        "meta_norad_cat_id": 33376,
        "meta_element_set_no": 999,
        "meta_rev_at_epoch": 6299,
        "meta_bstar": 0,
        "meta_mean_motion_dot": -1.37e-06,
        "meta_mean_motion_ddot": 0,
        "tle_line1": "1 33376U 08045A   25342.90428183 -.00000137  00000+0  00000+0 0  9990",
        "tle_line2": "2 33376   0.0176 311.8736 0003377 319.5286  35.0381  1.00269843 62990"
      },
      "geometry": {
        "type": "Point",
        "coordinates": [
          96.68591333446443,
          0.025455220835345984
        ]
      }
    },
    {
      "type": "Feature",
      "properties": {
        "norad_id": 35493,
        "name": "FM-5",
        "group": "intelsat",
        "lat": 0.011624777142881702,
        "lon": 107.54850031771416,
        "alt_km": 35785.112841619404,
        "timestamp": "2025-12-09T07:41:32.871082+00:00",
        "meta_object_name": "FM-5",
        "meta_object_id": "2009-034A",
        "meta_epoch": "2025-12-08T21:45:17.151264",
        "meta_mean_motion": 1.00271463,
        "meta_eccentricity": 8.072e-05,
        "meta_inclination": 0.0206,
        "meta_ra_of_asc_node": 287.6939,
        "meta_arg_of_pericenter": 251.0573,
        "meta_mean_anomaly": 139.3365,
        "meta_ephemeris_type": 0,
        "meta_classification_type": "U",
        "meta_norad_cat_id": 35493,
        "meta_element_set_no": 999,
        "meta_rev_at_epoch": 4473,
        "meta_bstar": 0,
        "meta_mean_motion_dot": -1.98e-06,
        "meta_mean_motion_ddot": 0,
        "tle_line1": "1 35493U 09034A   25342.90644851 -.00000198  00000+0  00000+0 0  9990",
        "tle_line2": "2 35493   0.0206 287.6939 0000807 251.0573 139.3365  1.00271463 44738"
      },
      "geometry": {
        "type": "Point",
        "coordinates": [
          107.54850031771416,
          0.011624777142881702
        ]
      }
    },
    {
      "type": "Feature",
      "properties": {
        "norad_id": 36097,
        "name": "INTELSAT 14 (IS-14)",
        "group": "intelsat",
        "lat": 0.006178123454474424,
        "lon": 148.67524548641387,
        "alt_km": 35791.48037009713,
        "timestamp": "2025-12-09T07:41:32.871094+00:00",
        "meta_object_name": "INTELSAT 14 (IS-14)",
        "meta_object_id": "2009-064A",
        "meta_epoch": "2025-12-08T21:57:01.027008",
        "meta_mean_motion": 1.00270505,
        "meta_eccentricity": 0.00026872,
        "meta_inclination": 0.0103,
        "meta_ra_of_asc_node": 338.873,
        "meta_arg_of_pericenter": 285.8937,
        "meta_mean_anomaly": 97.4091,
        "meta_ephemeris_type": 0,
        "meta_classification_type": "U",
        "meta_norad_cat_id": 36097,
        "meta_element_set_no": 999,
        "meta_rev_at_epoch": 5869,
        "meta_bstar": 0,
        "meta_mean_motion_dot": -2.71e-06,
        "meta_mean_motion_ddot": 0,
        "tle_line1": "1 36097U 09064A   25342.91459522 -.00000271  00000+0  00000+0 0  9996",
        "tle_line2": "2 36097   0.0103 338.8730 0002687 285.8937  97.4091  1.00270505 58696"
      },
      "geometry": {
        "type": "Point",
        "coordinates": [
          148.67524548641387,
          0.006178123454474424
        ]
      }
    },
    {
      "type": "Feature",
      "properties": {
        "norad_id": 36106,
        "name": "INTELSAT 15 (IS-15)",
        "group": "intelsat",
        "lat": -0.016843950561394393,
        "lon": -81.14360009542979,
        "alt_km": 35774.003663402196,
        "timestamp": "2025-12-09T07:41:32.871106+00:00",
        "meta_object_name": "INTELSAT 15 (IS-15)",
        "meta_object_id": "2009-067A",
        "meta_epoch": "2025-12-08T21:53:38.527008",
        "meta_mean_motion": 1.00275181,
        "meta_eccentricity": 0.00026659,
        "meta_inclination": 0.0293,
        "meta_ra_of_asc_node": 284.7842,
        "meta_arg_of_pericenter": 345.4926,
        "meta_mean_anomaly": 221.1948,
        "meta_ephemeris_type": 0,
        "meta_classification_type": "U",
        "meta_norad_cat_id": 36106,
        "meta_element_set_no": 999,
        "meta_rev_at_epoch": 3932,
        "meta_bstar": 0,
        "meta_mean_motion_dot": -1.84e-06,
        "meta_mean_motion_ddot": 0,
        "tle_line1": "1 36106U 09067A   25342.91225147 -.00000184  00000+0  00000+0 0  9997",
        "tle_line2": "2 36106   0.0293 284.7842 0002665 345.4926 221.1948  1.00275181 39328"
      },
      "geometry": {
        "type": "Point",
        "coordinates": [
          -81.14360009542979,
          -0.016843950561394393
        ]
      }
    },
    {
      "type": "Feature",
      "properties": {
        "norad_id": 36131,
        "name": "DIRECTV 12",
        "group": "intelsat",
        "lat": 0.009257379885231336,
        "lon": 90.97527868050894,
        "alt_km": 35786.98014572845,
        "timestamp": "2025-12-09T07:41:32.871118+00:00",
        "meta_object_name": "DIRECTV 12",
        "meta_object_id": "2009-075A",
        "meta_epoch": "2025-12-08T21:40:32.604960",
        "meta_mean_motion": 1.00270047,
        "meta_eccentricity": 3.553e-05,
        "meta_inclination": 0.0409,
        "meta_ra_of_asc_node": 138.4209,
        "meta_arg_of_pericenter": 206.7884,
        "meta_mean_anomaly": 315.1057,
        "meta_ephemeris_type": 0,
        "meta_classification_type": "U",
        "meta_norad_cat_id": 36131,
        "meta_element_set_no": 999,
        "meta_rev_at_epoch": 4464,
        "meta_bstar": 0,
        "meta_mean_motion_dot": -1.01e-06,
        "meta_mean_motion_ddot": 0,
        "tle_line1": "1 36131U 09075A   25342.90315515 -.00000101  00000+0  00000+0 0  9991",
        "tle_line2": "2 36131   0.0409 138.4209 0000355 206.7884 315.1057  1.00270047 44645"
      },
      "geometry": {
        "type": "Point",
        "coordinates": [
          90.97527868050894,
          0.009257379885231336
        ]
      }
    },
    {
      "type": "Feature",
      "properties": {
        "norad_id": 36397,
        "name": "INTELSAT 16 (IS-16)",
        "group": "intelsat",
        "lat": 0.013098083498606358,
        "lon": 117.48023925340105,
        "alt_km": 35794.40871551434,
        "timestamp": "2025-12-09T07:41:32.871129+00:00",
        "meta_object_name": "INTELSAT 16 (IS-16)",
        "meta_object_id": "2010-006A",
        "meta_epoch": "2025-12-08T21:48:09.375840",
        "meta_mean_motion": 1.00270382,
        "meta_eccentricity": 0.00023044,
        "meta_inclination": 0.0166,
        "meta_ra_of_asc_node": 307.3577,
        "meta_arg_of_pericenter": 314.1597,
        "meta_mean_anomaly": 67.2301,
        "meta_ephemeris_type": 0,
        "meta_classification_type": "U",
        "meta_norad_cat_id": 36397,
        "meta_element_set_no": 999,
        "meta_rev_at_epoch": 5774,
        "meta_bstar": 0,
        "meta_mean_motion_dot": -2.42e-06,
        "meta_mean_motion_ddot": 0,
        "tle_line1": "1 36397U 10006A   25342.90844185 -.00000242  00000+0  00000+0 0  9997",
        "tle_line2": "2 36397   0.0166 307.3577 0002304 314.1597  67.2301  1.00270382 57749"
      },
      "geometry": {
        "type": "Point",
        "coordinates": [
          117.48023925340105,
          0.013098083498606358
        ]
      }
    },
    {
      "type": "Feature",
      "properties": {
        "norad_id": 37185,
        "name": "XM-5",
        "group": "intelsat",
        "lat": 0.03340641543503315,
        "lon": 78.48453142108217,
        "alt_km": 35785.30354329177,
        "timestamp": "2025-12-09T07:41:32.871142+00:00",
        "meta_object_name": "XM-5",
        "meta_object_id": "2010-053A",
        "meta_epoch": "2025-12-08T16:28:50.714976",
        "meta_mean_motion": 1.00269412,
        "meta_eccentricity": 0.00017944,
        "meta_inclination": 0.0644,
        "meta_ra_of_asc_node": 272.5939,
        "meta_arg_of_pericenter": 245.1289,
        "meta_mean_anomaly": 51.9903,
        "meta_ephemeris_type": 0,
        "meta_classification_type": "U",
        "meta_norad_cat_id": 37185,
        "meta_element_set_no": 999,
        "meta_rev_at_epoch": 5557,
        "meta_bstar": 0,
        "meta_mean_motion_dot": -2.1e-07,
        "meta_mean_motion_ddot": 0,
        "tle_line1": "1 37185U 10053A   25342.68669809 -.00000021  00000+0  00000+0 0  9993",
        "tle_line2": "2 37185   0.0644 272.5939 0001794 245.1289  51.9903  1.00269412 55573"
      },
      "geometry": {
        "type": "Point",
        "coordinates": [
          78.48453142108217,
          0.03340641543503315
        ]
      }
    }
  ]
}